IRIDIUM 106             
1 41917U 17003A   24218.85243155  .00000131  00000+0  39733-4 0  9996
2 41917  86.3988  12.8224 0002082  81.7600 278.3832 14.34217745395692
IRIDIUM 103             
1 41918U 17003B   24218.90951662  .00000054  00000+0  12308-4 0  9995
2 41918  86.3989  12.7004 0002550  91.9210 268.2278 14.34218128395732
IRIDIUM 109             
1 41919U 17003C   24218.84608954  .00000515  00000+0  17676-3 0  9996
2 41919  86.3990  12.7751 0002321 101.3161 258.8296 14.34220652395708
IRIDIUM 102             
1 41920U 17003D   24218.18645994  .00000434  00000+0  14781-3 0  9994
2 41920  86.3986  12.9889 0002019  96.5399 263.6027 14.34220552395672
IRIDIUM 105             
1 41921U 17003E   24217.87812508  .00000986  00000+0  34496-3 0  9994
2 41921  86.4013 341.5675 0002354  92.0122 268.1344 14.34220586397486
IRIDIUM 104             
1 41922U 17003F   24218.12937764  .00000018  00000+0 -79195-6 0  9991
2 41922  86.3986  13.0446 0002409  99.3515 260.7954 14.34217780395653
IRIDIUM 114             
1 41923U 17003G   24217.92640266  .00000712  00000+0  24703-3 0  9999
2 41923  86.3987  13.1154 0002110  86.0943 274.0494 14.34219272395609
IRIDIUM 108             
1 41924U 17003H   24218.30353945  .00000031  00000+0  40451-5 0  9992
2 41924  86.4007 341.3113 0002047  91.2098 268.9332 14.34221905397536
